OBJECT_NAME,OBJECT_ID,EPOCH,MEAN_MOTION,ECCENTRICITY,INCLINATION,RA_OF_ASC_NODE,ARG_OF_PERICENTER,MEAN_ANOMALY,EPHEMERIS_TYPE,CLASSIFICATION_TYPE,NORAD_CAT_ID,ELEMENT_SET_NO,REV_AT_EPOCH,BSTAR,MEAN_MOTION_DOT,MEAN_MOTION_DDOT
PERSEUS-M1,2014-033AF,2026-06-10T01:52:40.520064,14.95611900,.00107249,97.9645,105.0938,328.4585,31.5991,0,U,40039,999,64957,.13256399E-3,.1412E-4,0
POLYITAN-1,2014-033AJ,2026-06-10T00:04:54.323328,15.33005372,.00081138,98.0952,186.5861,161.9908,198.1621,0,U,40042,999,65249,.56929436E-3,.18102E-3,0
TIGRISAT,2014-033AK,2026-06-10T04:13:50.355264,14.85135319,.0050709,97.7822,311.3494,97.5926,263.1053,0,U,40043,999,64458,.24109E-3,.2056E-4,0
AEROCUBE 6A,2014-033AM,2026-06-10T06:39:27.336672,14.98032072,.0039319,97.7224,328.3001,41.0482,319.3687,0,U,40045,999,64558,.46997E-3,.5583E-4,0
AEROCUBE 6B,2014-033AN,2026-06-09T08:27:13.837536,14.99486502,.00389335,97.7232,327.1573,35.9586,324.4245,0,U,40046,999,64558,.474951E-3,.5861E-4,0
CANX-4,2014-034C,2026-06-10T09:31:25.119264,14.81252055,.0013614,98.3131,36.4603,37.8743,322.3424,0,U,40055,999,64352,.1091E-3,.794E-5,0
CANX-5,2014-034D,2026-06-10T04:37:27.513120,14.81268948,.0013636,98.3134,36.2920,38.5954,321.6230,0,U,40056,999,63430,.11271E-3,.822E-5,0
UKUBE-1,2014-037F,2026-06-10T11:46:50.884608,15.13445461,.0002176,98.4238,164.0595,142.7393,217.3986,0,U,40074,999,64754,.45886E-3,.8128E-4,0
BRITE-PL2 (HEWELIUSZ),2014-049B,2026-06-10T06:38:13.164000,14.94572442,.0015152,97.9090,273.2238,128.9615,231.2957,0,U,40119,999,64041,.1488E-3,.1553E-4,0
AEROCUBE 5C,2015-058B,2026-06-10T01:30:55.698624,14.91420489,.01304782,64.7677,284.7519,66.0614,295.4099,0,U,40965,999,36459,.20677837E-3,.2259E-4,0
AEROCUBE 7,2015-058C,2026-06-10T11:32:36.492288,14.95682951,.0120204,64.7626,265.8202,64.3703,296.9772,0,U,40966,999,36495,.24264E-3,.2947E-4,0
FOX-1A (AO-85),2015-058D,2026-06-10T12:15:40.019040,14.90937275,.0130049,64.7757,299.7308,59.2041,302.1796,0,U,40967,999,11257,.21272E-3,.2296E-4,0
SINOD-D 1,2015-058E,2026-06-09T17:23:01.757760,14.95857939,.011862,64.7758,282.2824,56.0584,305.1740,0,U,40968,999,11554,.26884E-3,.329E-4,0
SNAP-3 ALICE,2015-058G,2026-06-10T09:00:41.732064,15.58530744,.003007,64.7494,127.4494,16.5785,343.6336,0,U,40970,999,11582,.13902E-2,.110496E-2,0
LMRST-SAT,2015-058H,2026-06-09T23:52:33.614400,14.90557514,.01317019,64.7764,297.6590,61.4271,300.0021,0,U,40971,999,11248,.20841847E-3,.2231E-4,0
SNAP-3 EDDIE,2015-058J,2026-06-10T05:49:27.024960,15.59680207,.002992,64.7416,118.6836,20.6311,339.6035,0,U,40972,999,11794,.13994E-2,.116287E-2,0
PROPCUBE 3,2015-058K,2026-06-10T01:09:12.116160,14.94218236,.01237217,64.7691,274.8403,62.7299,298.6352,0,U,40973,999,11373,.24069538E-3,.2829E-4,0
BISONSAT,2015-058L,2026-06-10T08:54:15.244128,15.16046287,.0078501,64.7590,195.6792,50.0805,310.7183,0,U,40974,999,11458,.46418E-3,.9502E-4,0
SNAP-3 JIMI,2015-058M,2026-06-09T14:24:16.714080,15.02233651,.01058062,64.7650,243.7760,58.4680,302.6719,0,U,40975,999,11308,.29586767E-3,.4229E-4,0
PROPCUBE 1 (FLORA),2015-058N,2026-06-10T11:31:45.957792,14.89190664,.0130456,64.7753,316.0220,63.5486,297.8941,0,U,40976,999,11526,.22002E-3,.227E-4,0
SINOD-D 3,2015-058P,2026-06-10T11:31:30.639072,14.93973548,.0118934,64.7731,296.7621,60.8045,300.4903,0,U,40977,999,11375,.26575E-3,.3085E-4,0
HORYU-4,2016-012D,2026-06-10T02:36:09.976320,15.90526809,.00034613,30.9844,130.8123,226.4757,133.5616,0,U,41340,999,56968,.10043265E-2,.337518E-2,0
RAVAN,2016-067B,2026-06-10T11:27:15.028128,15.54031009,.0005404,97.9903,50.2770,49.1889,310.9831,0,U,41849,999,52665,.6909E-3,.44818E-3,0
CELTEE 1,2016-067C,2026-06-10T08:37:08.411232,15.19615697,.0000673,98.0686,27.4607,110.2549,249.8756,0,U,41850,999,52484,.23431E-3,.4913E-4,0
OPTICUBE 04,2016-067D,2026-06-10T12:24:51.677856,15.09632614,.0016622,98.0712,13.4533,136.4152,223.8392,0,U,41851,999,52416,.12629E-3,.1965E-4,0
AEROCUBE 8D,2016-067E,2026-06-10T11:02:23.568000,15.24303373,.0004295,98.0698,31.1199,140.0430,220.1122,0,U,41852,999,52504,.2893E-3,.6992E-4,0
AEROCUBE 8C,2016-067F,2026-06-10T03:47:23.036064,15.24546141,.0006819,98.0571,28.0315,88.2255,271.9761,0,U,41853,999,52499,.28524E-3,.6945E-4,0
CORVUS BC2,2017-042X,2026-06-09T21:17:54.816864,15.06248195,.00142076,97.4054,322.5225,132.8249,227.4176,0,U,42846,999,48596,.17768664E-3,.2553E-4,0
CORVUS BC1,2017-042Y,2026-06-09T22:46:59.793888,15.06416487,.0013225,97.4081,323.3911,111.4047,248.8593,0,U,42847,999,48600,.20310757E-3,.2939E-4,0
MAKERSAT 0,2017-073D,2026-06-10T04:35:06.173952,15.31854691,.0105692,97.4634,43.6556,298.3481,60.7133,0,U,43016,999,46539,.49573E-3,.18116E-3,0
