PERSEUS-M1              
1 40039U 14033AF  26161.07824676  .00001412  00000+0  13256-3 0  9990
2 40039  97.9645 105.0938 0010724 328.4585  31.5991 14.95611900649578
POLYITAN-1              
1 40042U 14033AJ  26161.00340652  .00018102  00000+0  56929-3 0  9992
2 40042  98.0952 186.5861 0008113 161.9908 198.1621 15.33005372652490
TIGRISAT                
1 40043U 14033AK  26161.17627726  .00002056  00000+0  24109-3 0  9997
2 40043  97.7822 311.3494 0050709  97.5926 263.1053 14.85135319644589
AEROCUBE 6A             
1 40045U 14033AM  26161.27739973  .00005583  00000+0  46997-3 0  9995
2 40045  97.7224 328.3001 0039319  41.0482 319.3687 14.98032072645588
AEROCUBE 6B             
1 40046U 14033AN  26160.35224349  .00005861  00000+0  47495-3 0  9993
2 40046  97.7232 327.1573 0038933  35.9586 324.4245 14.99486502645586
CANX-4                  
1 40055U 14034C   26161.39681851  .00000794  00000+0  10910-3 0  9996
2 40055  98.3131  36.4603 0013614  37.8743 322.3424 14.81252055643523
CANX-5                  
1 40056U 14034D   26161.19267955  .00000822  00000+0  11271-3 0  9993
2 40056  98.3134  36.2920 0013636  38.5954 321.6230 14.81268948634304
UKUBE-1                 
1 40074U 14037F   26161.49086672  .00008128  00000+0  45886-3 0  9990
2 40074  98.4238 164.0595 0002176 142.7393 217.3986 15.13445461647542
BRITE-PL2 (HEWELIUSZ)   
1 40119U 14049B   26161.27654125  .00001553  00000+0  14880-3 0  9998
2 40119  97.9090 273.2238 0015152 128.9615 231.2957 14.94572442640410
AEROCUBE 5C             
1 40965U 15058B   26161.06314466  .00002259  00000+0  20678-3 0  9992
2 40965  64.7677 284.7519 0130478  66.0614 295.4099 14.91420489364592
AEROCUBE 7              
1 40966U 15058C   26161.48097792  .00002947  00000+0  24264-3 0  9998
2 40966  64.7626 265.8202 0120204  64.3703 296.9772 14.95682951364954
FOX-1A (AO-85)          
1 40967U 15058D   26161.51087985  .00002296  00000+0  21272-3 0  9999
2 40967  64.7757 299.7308 0130049  59.2041 302.1796 14.90937275112571
SINOD-D 1               
1 40968U 15058E   26160.72432590  .00003290  00000+0  26884-3 0  9997
2 40968  64.7758 282.2824 0118620  56.0584 305.1740 14.95857939115546
SNAP-3 ALICE            
1 40970U 15058G   26161.37548301  .00110496  00000+0  13902-2 0  9993
2 40970  64.7494 127.4494 0030070  16.5785 343.6336 15.58530744115826
LMRST-SAT               
1 40971U 15058H   26160.99483350  .00002231  00000+0  20842-3 0  9992
2 40971  64.7764 297.6590 0131701  61.4271 300.0021 14.90557514112482
SNAP-3 EDDIE            
1 40972U 15058J   26161.24267390  .00116287  00000+0  13994-2 0  9992
2 40972  64.7416 118.6836 0029920  20.6311 339.6035 15.59680207117944
PROPCUBE 3              
1 40973U 15058K   26161.04805690  .00002829  00000+0  24070-3 0  9996
2 40973  64.7691 274.8403 0123721  62.7299 298.6352 14.94218236113737
BISONSAT                
1 40974U 15058L   26161.37100977  .00009502  00000+0  46418-3 0  9994
2 40974  64.7590 195.6792 0078501  50.0805 310.7183 15.16046287114587
SNAP-3 JIMI             
1 40975U 15058M   26160.60019345  .00004229  00000+0  29587-3 0  9997
2 40975  64.7650 243.7760 0105806  58.4680 302.6719 15.02233651113084
PROPCUBE 1 (FLORA)      
1 40976U 15058N   26161.48039303  .00002270  00000+0  22002-3 0  9990
2 40976  64.7753 316.0220 0130456  63.5486 297.8941 14.89190664115268
SINOD-D 3               
1 40977U 15058P   26161.48021573  .00003085  00000+0  26575-3 0  9995
2 40977  64.7731 296.7621 0118934  60.8045 300.4903 14.93973548113758
HORYU-4                 
1 41340U 16012D   26161.10844880  .00337518  00000+0  10043-2 0  9997
2 41340  30.9844 130.8123 0003461 226.4757 133.5616 15.90526809569681
RAVAN                   
1 41849U 16067B   26161.47725727  .00044818  00000+0  69090-3 0  9994
2 41849  97.9903  50.2770 0005404  49.1889 310.9831 15.54031009526655
CELTEE 1                
1 41850U 16067C   26161.35912513  .00004913  00000+0  23431-3 0  9995
2 41850  98.0686  27.4607 0000673 110.2549 249.8756 15.19615697524845
OPTICUBE 04             
1 41851U 16067D   26161.51726479  .00001965  00000+0  12629-3 0  9999
2 41851  98.0712  13.4533 0016622 136.4152 223.8392 15.09632614524160
AEROCUBE 8D             
1 41852U 16067E   26161.45999500  .00006992  00000+0  28930-3 0  9997
2 41852  98.0698  31.1199 0004295 140.0430 220.1122 15.24303373525045
AEROCUBE 8C             
1 41853U 16067F   26161.15790551  .00006945  00000+0  28524-3 0  9997
2 41853  98.0571  28.0315 0006819  88.2255 271.9761 15.24546141524991
CORVUS BC2              
1 42846U 17042X   26160.88744001  .00002553  00000+0  17769-3 0  9992
2 42846  97.4054 322.5225 0014207 132.8249 227.4176 15.06248195485961
CORVUS BC1              
1 42847U 17042Y   26160.94930317  .00002939  00000+0  20311-3 0  9992
2 42847  97.4081 323.3911 0013225 111.4047 248.8593 15.06416487486008
MAKERSAT 0              
1 43016U 17073D   26161.19104368  .00018116  00000+0  49573-3 0  9997
2 43016  97.4634  43.6556 0105692 298.3481  60.7133 15.31854691465396
